SL-3 R/B                
1 19046U 88032B   17345.90534005 -.00000224  00000-0 -12139-4 0  9997
2 19046  97.5084  27.4705 0041108  88.3465 272.2469 15.02358052599037
